[{"OBJECT_NAME":"GHGSAT-C4","OBJECT_ID":"2022-057Q","EPOCH":"2026-03-09T22:58:28.655904","MEAN_MOTION":15.3293316,"ECCENTRICITY":0.0007552,"INCLINATION":97.6357,"RA_OF_ASC_NODE":210.0193,"ARG_OF_PERICENTER":100.0033,"MEAN_ANOMALY":260.2061,"EPHEMERIS_TYPE":0,"CLASSIFICATION_TYPE":"U","NORAD_CAT_ID":52746,"ELEMENT_SET_NO":999,"REV_AT_EPOCH":21033,"BSTAR":0.00030289005,"MEAN_MOTION_DOT":9.562e-5,"MEAN_MOTION_DDOT":0},{"OBJECT_NAME":"STARLINK-31440","OBJECT_ID":"2024-036B","EPOCH":"2026-03-09T08:11:46.768128","MEAN_MOTION":15.30189209,"ECCENTRICITY":0.00012019,"INCLINATION":53.1609,"RA_OF_ASC_NODE":79.4817,"ARG_OF_PERICENTER":94.6236,"MEAN_ANOMALY":265.4902,"EPHEMERIS_TYPE":0,"CLASSIFICATION_TYPE":"U","NORAD_CAT_ID":58999,"ELEMENT_SET_NO":999,"REV_AT_EPOCH":11446,"BSTAR":-7.488561e-6,"MEAN_MOTION_DOT":-5.81e-6,"MEAN_MOTION_DDOT":0}]
